<?xml version="1.0" encoding="UTF-8"?>
<kml xmlns="http://www.opengis.net/kml/2.2">
  <Document>
    <Document>
      <name>EOSS-404</name>
      <description><![CDATA[
    <h1>EOSS-404</h1>
    <table style="width: 100%;" cellpadding=0 cellspacing=0 border=0>
    <tr><td style="border: solid 1px black;border-bottom: 0; padding: 10px;"><strong>Launch Date/Time (UTC)</strong></td><td style=" padding: 10px;border: solid 1px black;border-bottom: 0; border-left: 0;">2026-07-25 07:12:17</td></tr>
    <tr><td style="border: solid 1px black;border-bottom: 0; padding: 10px;"><strong>Flight Duration</strong></td><td style=" padding: 10px;border: solid 1px black;border-bottom: 0; border-left: 0; ">5hrs 29mins 57secs</td></tr>
    <tr><td style="border: solid 1px black;border-bottom: 0; padding: 10px;"><strong>Down Range Distance</strong></td><td style=" padding: 10px;border: solid 1px black;border-bottom: 0; border-left: 0; ">0.0mi (0.1km)</td></tr>
    <tr><td style="border: solid 1px black; padding: 10px;"><strong>Approx. Burst Altitude</strong></td><td style=" padding: 10px;border: solid 1px black; border-left: 0; ">67568ft (20594.7m)</td></tr>
    </table>
    ]]></description>
      <Folder>
        <name>Paths</name>
        <Placemark>
          <name>EOSS-404 Ascent</name>
          <Style>
            <LineStyle>
              <color>ff0000ff</color>
              <width>3</width>
            </LineStyle>
          </Style>
          <LineString>
            <extrude>0</extrude>
            <altitudeMode>absolute</altitudeMode>
            <coordinates>-103.4955,39.278166666666664,1709.93 -103.49683333333333,39.278666666666666,1938.53 -103.49883333333334,39.28066666666667,2351.53 -103.50033333333333,39.282833333333336,2774.29 -103.50166666666667,39.284666666666666,3196.74 -103.50266666666667,39.286833333333334,3611.88 -103.50433333333334,39.2885,4041.34 -103.50683333333333,39.29083333333333,4472.03 -103.50783333333334,39.29216666666667,4909.41 -103.50683333333333,39.291666666666664,5339.79 -103.5045,39.291,5751.27 -103.50166666666667,39.29183333333334,6176.16 -103.49783333333333,39.2945,6633.67 -103.49366666666667,39.29716666666667,7070.75 -103.4915,39.29933333333334,7515.15 -103.4895,39.3005,7955.28 -103.48583333333333,39.302,8363.1 -103.48216666666667,39.305,8784.64 -103.4785,39.30583333333333,9204.35 -103.47433333333333,39.306666666666665,9624.97 -103.46933333333334,39.3075,10069.37 -103.461,39.3065,10515.6 -103.45283333333333,39.30383333333333,10953.6 -103.4455,39.3,11384.58 -103.43783333333333,39.297,11803.99 -103.42966666666666,39.29383333333333,12216.99 -103.42216666666667,39.288833333333336,12644.02 -103.41466666666666,39.282,13024.1 -103.40766666666667,39.275,13484.05 -103.39983333333333,39.267,13904.98 -103.394,39.257666666666665,14313.71 -103.38716666666667,39.2475,14689.53 -103.37916666666666,39.239,15102.54 -103.37316666666666,39.231833333333334,15530.17 -103.36866666666667,39.22666666666667,15851.73 -103.36716666666666,39.222166666666666,16407.08 -103.36316666666667,39.218666666666664,16809.11 -103.363,39.214333333333336,17236.74 -103.36316666666667,39.21333333333333,17546.73 -103.35983333333333,39.215333333333334,17886.88 -103.358,39.215333333333334,18177.05 -103.35516666666666,39.21366666666667,18480.63 -103.35666666666667,39.2115,18745.2 -103.3595,39.20933333333333,18991.17 -103.364,39.20766666666667,19250.25 -103.3685,39.2095,19525.49 -103.371,39.209666666666664,19808.04 -103.3755,39.208,20065.59 -103.38266666666667,39.2065,20333.51 -103.388,39.207,20594.73</coordinates>
          </LineString>
        </Placemark>
        <Placemark>
          <name>EOSS-404 Descent</name>
          <Style>
            <LineStyle>
              <color>ffff0000</color>
              <width>3</width>
            </LineStyle>
          </Style>
          <LineString>
            <extrude>0</extrude>
            <altitudeMode>absolute</altitudeMode>
            <coordinates>-103.388,39.207,20594.73 -103.39216666666667,39.207166666666666,19140.22 -103.39333333333333,39.20616666666667,17875.61 -103.39283333333333,39.2055,16740.53 -103.39033333333333,39.20066666666666,15800.22 -103.38733333333333,39.1925,14956.54 -103.38266666666667,39.184333333333335,14137.54 -103.37566666666666,39.17616666666667,13317.63 -103.371,39.170833333333334,12607.14 -103.3635,39.166666666666664,11856.72 -103.35633333333334,39.16266666666667,11174.27 -103.3495,39.159166666666664,10490 -103.3425,39.158166666666666,9843.52 -103.33733333333333,39.16016666666667,9209.84 -103.333,39.1625,8632.24 -103.32983333333334,39.1645,8086.34 -103.32833333333333,39.166,7552.03 -103.326,39.16766666666667,7063.44 -103.322,39.17033333333333,6541.62 -103.3185,39.172666666666665,6047.84 -103.31616666666666,39.17316666666667,5572.05 -103.3145,39.17183333333333,5106.92 -103.3145,39.172333333333334,4643.93 -103.31683333333334,39.17483333333333,4206.85 -103.31916666666666,39.17666666666667,3786.23 -103.31933333333333,39.178,3367.74 -103.32016666666667,39.17966666666667,2942.54 -103.496,39.278,1703.83</coordinates>
          </LineString>
        </Placemark>
      </Folder>
      <Folder>
        <name>Waypoints</name>
        <Placemark>
          <name>10k</name>
          <description><![CDATA[<h1>Waypoint</h1>
        <table style="width: 100%;" cellpadding=0 cellspacing=0 border=0>
        <tr><td style="padding: 10px; border: solid 1px black;border-bottom: 0;"><strong>Time (UTC)</strong></td><td style="border: solid 1px black;border-left: 0; border-bottom: 0; padding: 10px;">07:16:17</td></tr>
        <tr><td style="padding: 10px; border: solid 1px black;border-bottom: 0;"><strong>Altitude</strong></td><td style="border: solid 1px black;border-left: 0; border-bottom: 0; padding: 10px;">10488ft (3196.7m)</td></tr>
        <tr><td style="padding: 10px; border: solid 1px black;"><strong>Coordinates</strong></td><td style="border: solid 1px black; border-left: 0; padding: 10px;">39.28466667, -103.50166667</td></tr>
        </table>]]></description>
          <Style>
            <IconStyle>
              <color>ff0000ff</color>
              <Icon>
                <href>https://maps.google.com/mapfiles/kml/shapes/placemark_circle.png</href>
              </Icon>
            </IconStyle>
          </Style>
          <Point>
            <altitudeMode>absolute</altitudeMode>
            <coordinates>-103.50166666666667,39.284666666666666,3196.74</coordinates>
          </Point>
        </Placemark>
        <Placemark>
          <name>20k</name>
          <description><![CDATA[<h1>Waypoint</h1>
        <table style="width: 100%;" cellpadding=0 cellspacing=0 border=0>
        <tr><td style="padding: 10px; border: solid 1px black;border-bottom: 0;"><strong>Time (UTC)</strong></td><td style="border: solid 1px black;border-left: 0; border-bottom: 0; padding: 10px;">07:23:17</td></tr>
        <tr><td style="padding: 10px; border: solid 1px black;border-bottom: 0;"><strong>Altitude</strong></td><td style="border: solid 1px black;border-left: 0; border-bottom: 0; padding: 10px;">20263ft (6176.2m)</td></tr>
        <tr><td style="padding: 10px; border: solid 1px black;"><strong>Coordinates</strong></td><td style="border: solid 1px black; border-left: 0; padding: 10px;">39.29183333, -103.50166667</td></tr>
        </table>]]></description>
          <Style>
            <IconStyle>
              <color>ff0000ff</color>
              <Icon>
                <href>https://maps.google.com/mapfiles/kml/shapes/placemark_circle.png</href>
              </Icon>
            </IconStyle>
          </Style>
          <Point>
            <altitudeMode>absolute</altitudeMode>
            <coordinates>-103.50166666666667,39.29183333333334,6176.16</coordinates>
          </Point>
        </Placemark>
        <Placemark>
          <name>30k</name>
          <description><![CDATA[<h1>Waypoint</h1>
        <table style="width: 100%;" cellpadding=0 cellspacing=0 border=0>
        <tr><td style="padding: 10px; border: solid 1px black;border-bottom: 0;"><strong>Time (UTC)</strong></td><td style="border: solid 1px black;border-left: 0; border-bottom: 0; padding: 10px;">07:30:17</td></tr>
        <tr><td style="padding: 10px; border: solid 1px black;border-bottom: 0;"><strong>Altitude</strong></td><td style="border: solid 1px black;border-left: 0; border-bottom: 0; padding: 10px;">30198ft (9204.4m)</td></tr>
        <tr><td style="padding: 10px; border: solid 1px black;"><strong>Coordinates</strong></td><td style="border: solid 1px black; border-left: 0; padding: 10px;">39.30583333, -103.47850000</td></tr>
        </table>]]></description>
          <Style>
            <IconStyle>
              <color>ff0000ff</color>
              <Icon>
                <href>https://maps.google.com/mapfiles/kml/shapes/placemark_circle.png</href>
              </Icon>
            </IconStyle>
          </Style>
          <Point>
            <altitudeMode>absolute</altitudeMode>
            <coordinates>-103.4785,39.30583333333333,9204.35</coordinates>
          </Point>
        </Placemark>
        <Placemark>
          <name>40k</name>
          <description><![CDATA[<h1>Waypoint</h1>
        <table style="width: 100%;" cellpadding=0 cellspacing=0 border=0>
        <tr><td style="padding: 10px; border: solid 1px black;border-bottom: 0;"><strong>Time (UTC)</strong></td><td style="border: solid 1px black;border-left: 0; border-bottom: 0; padding: 10px;">07:37:17</td></tr>
        <tr><td style="padding: 10px; border: solid 1px black;border-bottom: 0;"><strong>Altitude</strong></td><td style="border: solid 1px black;border-left: 0; border-bottom: 0; padding: 10px;">40082ft (12217.0m)</td></tr>
        <tr><td style="padding: 10px; border: solid 1px black;"><strong>Coordinates</strong></td><td style="border: solid 1px black; border-left: 0; padding: 10px;">39.29383333, -103.42966667</td></tr>
        </table>]]></description>
          <Style>
            <IconStyle>
              <color>ff0000ff</color>
              <Icon>
                <href>https://maps.google.com/mapfiles/kml/shapes/placemark_circle.png</href>
              </Icon>
            </IconStyle>
          </Style>
          <Point>
            <altitudeMode>absolute</altitudeMode>
            <coordinates>-103.42966666666666,39.29383333333333,12216.99</coordinates>
          </Point>
        </Placemark>
        <Placemark>
          <name>50k</name>
          <description><![CDATA[<h1>Waypoint</h1>
        <table style="width: 100%;" cellpadding=0 cellspacing=0 border=0>
        <tr><td style="padding: 10px; border: solid 1px black;border-bottom: 0;"><strong>Time (UTC)</strong></td><td style="border: solid 1px black;border-left: 0; border-bottom: 0; padding: 10px;">07:44:17</td></tr>
        <tr><td style="padding: 10px; border: solid 1px black;border-bottom: 0;"><strong>Altitude</strong></td><td style="border: solid 1px black;border-left: 0; border-bottom: 0; padding: 10px;">49549ft (15102.5m)</td></tr>
        <tr><td style="padding: 10px; border: solid 1px black;"><strong>Coordinates</strong></td><td style="border: solid 1px black; border-left: 0; padding: 10px;">39.23900000, -103.37916667</td></tr>
        </table>]]></description>
          <Style>
            <IconStyle>
              <color>ff0000ff</color>
              <Icon>
                <href>https://maps.google.com/mapfiles/kml/shapes/placemark_circle.png</href>
              </Icon>
            </IconStyle>
          </Style>
          <Point>
            <altitudeMode>absolute</altitudeMode>
            <coordinates>-103.37916666666666,39.239,15102.54</coordinates>
          </Point>
        </Placemark>
        <Placemark>
          <name>60k</name>
          <description><![CDATA[<h1>Waypoint</h1>
        <table style="width: 100%;" cellpadding=0 cellspacing=0 border=0>
        <tr><td style="padding: 10px; border: solid 1px black;border-bottom: 0;"><strong>Time (UTC)</strong></td><td style="border: solid 1px black;border-left: 0; border-bottom: 0; padding: 10px;">07:52:16</td></tr>
        <tr><td style="padding: 10px; border: solid 1px black;border-bottom: 0;"><strong>Altitude</strong></td><td style="border: solid 1px black;border-left: 0; border-bottom: 0; padding: 10px;">59636ft (18177.0m)</td></tr>
        <tr><td style="padding: 10px; border: solid 1px black;"><strong>Coordinates</strong></td><td style="border: solid 1px black; border-left: 0; padding: 10px;">39.21533333, -103.35800000</td></tr>
        </table>]]></description>
          <Style>
            <IconStyle>
              <color>ff0000ff</color>
              <Icon>
                <href>https://maps.google.com/mapfiles/kml/shapes/placemark_circle.png</href>
              </Icon>
            </IconStyle>
          </Style>
          <Point>
            <altitudeMode>absolute</altitudeMode>
            <coordinates>-103.358,39.215333333333334,18177.05</coordinates>
          </Point>
        </Placemark>
        <Placemark>
          <name>10k</name>
          <description><![CDATA[<h1>Waypoint</h1>
        <table style="width: 100%;" cellpadding=0 cellspacing=0 border=0>
        <tr><td style="padding: 10px; border: solid 1px black;border-bottom: 0;"><strong>Time (UTC)</strong></td><td style="border: solid 1px black;border-left: 0; border-bottom: 0; padding: 10px;">08:27:17</td></tr>
        <tr><td style="padding: 10px; border: solid 1px black;border-bottom: 0;"><strong>Altitude</strong></td><td style="border: solid 1px black;border-left: 0; border-bottom: 0; padding: 10px;">9654ft (2942.5m)</td></tr>
        <tr><td style="padding: 10px; border: solid 1px black;"><strong>Coordinates</strong></td><td style="border: solid 1px black; border-left: 0; padding: 10px;">39.17966667, -103.32016667</td></tr>
        </table>]]></description>
          <Style>
            <IconStyle>
              <color>ffff0000</color>
              <Icon>
                <href>https://maps.google.com/mapfiles/kml/shapes/placemark_circle.png</href>
              </Icon>
            </IconStyle>
          </Style>
          <Point>
            <altitudeMode>absolute</altitudeMode>
            <coordinates>-103.32016666666667,39.17966666666667,2942.54</coordinates>
          </Point>
        </Placemark>
        <Placemark>
          <name>20k</name>
          <description><![CDATA[<h1>Waypoint</h1>
        <table style="width: 100%;" cellpadding=0 cellspacing=0 border=0>
        <tr><td style="padding: 10px; border: solid 1px black;border-bottom: 0;"><strong>Time (UTC)</strong></td><td style="border: solid 1px black;border-left: 0; border-bottom: 0; padding: 10px;">08:20:17</td></tr>
        <tr><td style="padding: 10px; border: solid 1px black;border-bottom: 0;"><strong>Altitude</strong></td><td style="border: solid 1px black;border-left: 0; border-bottom: 0; padding: 10px;">19842ft (6047.8m)</td></tr>
        <tr><td style="padding: 10px; border: solid 1px black;"><strong>Coordinates</strong></td><td style="border: solid 1px black; border-left: 0; padding: 10px;">39.17266667, -103.31850000</td></tr>
        </table>]]></description>
          <Style>
            <IconStyle>
              <color>ffff0000</color>
              <Icon>
                <href>https://maps.google.com/mapfiles/kml/shapes/placemark_circle.png</href>
              </Icon>
            </IconStyle>
          </Style>
          <Point>
            <altitudeMode>absolute</altitudeMode>
            <coordinates>-103.3185,39.172666666666665,6047.84</coordinates>
          </Point>
        </Placemark>
        <Placemark>
          <name>30k</name>
          <description><![CDATA[<h1>Waypoint</h1>
        <table style="width: 100%;" cellpadding=0 cellspacing=0 border=0>
        <tr><td style="padding: 10px; border: solid 1px black;border-bottom: 0;"><strong>Time (UTC)</strong></td><td style="border: solid 1px black;border-left: 0; border-bottom: 0; padding: 10px;">08:14:16</td></tr>
        <tr><td style="padding: 10px; border: solid 1px black;border-bottom: 0;"><strong>Altitude</strong></td><td style="border: solid 1px black;border-left: 0; border-bottom: 0; padding: 10px;">30216ft (9209.8m)</td></tr>
        <tr><td style="padding: 10px; border: solid 1px black;"><strong>Coordinates</strong></td><td style="border: solid 1px black; border-left: 0; padding: 10px;">39.16016667, -103.33733333</td></tr>
        </table>]]></description>
          <Style>
            <IconStyle>
              <color>ffff0000</color>
              <Icon>
                <href>https://maps.google.com/mapfiles/kml/shapes/placemark_circle.png</href>
              </Icon>
            </IconStyle>
          </Style>
          <Point>
            <altitudeMode>absolute</altitudeMode>
            <coordinates>-103.33733333333333,39.16016666666667,9209.84</coordinates>
          </Point>
        </Placemark>
        <Placemark>
          <name>40k</name>
          <description><![CDATA[<h1>Waypoint</h1>
        <table style="width: 100%;" cellpadding=0 cellspacing=0 border=0>
        <tr><td style="padding: 10px; border: solid 1px black;border-bottom: 0;"><strong>Time (UTC)</strong></td><td style="border: solid 1px black;border-left: 0; border-bottom: 0; padding: 10px;">08:10:16</td></tr>
        <tr><td style="padding: 10px; border: solid 1px black;border-bottom: 0;"><strong>Altitude</strong></td><td style="border: solid 1px black;border-left: 0; border-bottom: 0; padding: 10px;">38900ft (11856.7m)</td></tr>
        <tr><td style="padding: 10px; border: solid 1px black;"><strong>Coordinates</strong></td><td style="border: solid 1px black; border-left: 0; padding: 10px;">39.16666667, -103.36350000</td></tr>
        </table>]]></description>
          <Style>
            <IconStyle>
              <color>ffff0000</color>
              <Icon>
                <href>https://maps.google.com/mapfiles/kml/shapes/placemark_circle.png</href>
              </Icon>
            </IconStyle>
          </Style>
          <Point>
            <altitudeMode>absolute</altitudeMode>
            <coordinates>-103.3635,39.166666666666664,11856.72</coordinates>
          </Point>
        </Placemark>
        <Placemark>
          <name>50k</name>
          <description><![CDATA[<h1>Waypoint</h1>
        <table style="width: 100%;" cellpadding=0 cellspacing=0 border=0>
        <tr><td style="padding: 10px; border: solid 1px black;border-bottom: 0;"><strong>Time (UTC)</strong></td><td style="border: solid 1px black;border-left: 0; border-bottom: 0; padding: 10px;">08:06:17</td></tr>
        <tr><td style="padding: 10px; border: solid 1px black;border-bottom: 0;"><strong>Altitude</strong></td><td style="border: solid 1px black;border-left: 0; border-bottom: 0; padding: 10px;">49070ft (14956.5m)</td></tr>
        <tr><td style="padding: 10px; border: solid 1px black;"><strong>Coordinates</strong></td><td style="border: solid 1px black; border-left: 0; padding: 10px;">39.19250000, -103.38733333</td></tr>
        </table>]]></description>
          <Style>
            <IconStyle>
              <color>ffff0000</color>
              <Icon>
                <href>https://maps.google.com/mapfiles/kml/shapes/placemark_circle.png</href>
              </Icon>
            </IconStyle>
          </Style>
          <Point>
            <altitudeMode>absolute</altitudeMode>
            <coordinates>-103.38733333333333,39.1925,14956.54</coordinates>
          </Point>
        </Placemark>
        <Placemark>
          <name>60k</name>
          <description><![CDATA[<h1>Waypoint</h1>
        <table style="width: 100%;" cellpadding=0 cellspacing=0 border=0>
        <tr><td style="padding: 10px; border: solid 1px black;border-bottom: 0;"><strong>Time (UTC)</strong></td><td style="border: solid 1px black;border-left: 0; border-bottom: 0; padding: 10px;">08:03:16</td></tr>
        <tr><td style="padding: 10px; border: solid 1px black;border-bottom: 0;"><strong>Altitude</strong></td><td style="border: solid 1px black;border-left: 0; border-bottom: 0; padding: 10px;">58647ft (17875.6m)</td></tr>
        <tr><td style="padding: 10px; border: solid 1px black;"><strong>Coordinates</strong></td><td style="border: solid 1px black; border-left: 0; padding: 10px;">39.20616667, -103.39333333</td></tr>
        </table>]]></description>
          <Style>
            <IconStyle>
              <color>ffff0000</color>
              <Icon>
                <href>https://maps.google.com/mapfiles/kml/shapes/placemark_circle.png</href>
              </Icon>
            </IconStyle>
          </Style>
          <Point>
            <altitudeMode>absolute</altitudeMode>
            <coordinates>-103.39333333333333,39.20616666666667,17875.61</coordinates>
          </Point>
        </Placemark>
      </Folder>
      <Folder>
        <name>Points of Interest</name>
        <Placemark>
          <name>Launch</name>
          <description><![CDATA[<h1>Launch</h1>
    <table style="width: 100%;" cellpadding=0 cellspacing=0 border=0>
    <tr><td style="padding: 10px; border: solid 1px black;border-bottom: 0;"><strong>Time (UTC)</strong></td><td style="border: solid 1px black;border-bottom: 0; border-left: 0; padding: 10px;">07:12:17</td></tr>
    <tr><td style="padding: 10px; border: solid 1px black;border-bottom: 0;"><strong>Altitude</strong></td><td style="border: solid 1px black;border-left: 0; border-bottom: 0; padding: 10px;">5610ft (1709.9m)</td></tr>
    <tr><td style="padding: 10px; border: solid 1px black;"><strong>Coordinates</strong></td><td style="border: solid 1px black; border-left: 0; padding: 10px;">39.27816667, -103.49550000</td></tr>
    </table>]]></description>
          <Style>
            <IconStyle>
              <color>ff00aaff</color>
              <Icon>
                <href>https://maps.google.com/mapfiles/kml/shapes/placemark_circle.png</href>
              </Icon>
            </IconStyle>
          </Style>
          <Point>
            <altitudeMode>absolute</altitudeMode>
            <coordinates>-103.4955,39.278166666666664,1709.93</coordinates>
          </Point>
        </Placemark>
        <Placemark>
          <name>Landing</name>
          <description><![CDATA[<h1>Landing</h1>
    <table style="width: 100%;" cellpadding=0 cellspacing=0 border=0>
    <tr><td style="padding: 10px; border: solid 1px black;border-bottom: 0;"><strong>Time (UTC)</strong></td><td style="border: solid 1px black;border-left: 0; border-bottom: 0; padding: 10px;">12:42:15</td></tr>
    <tr><td style="padding: 10px; border: solid 1px black;border-bottom: 0;"><strong>Altitude</strong></td><td style="border: solid 1px black;border-bottom: 0; border-left: 0; padding: 10px;">5590ft (1703.8m)</td></tr>
    <tr><td style="padding: 10px; border: solid 1px black;"><strong>Coordinates</strong></td><td style="border: solid 1px black; border-left: 0; padding: 10px;">39.27800000, -103.49600000</td></tr>
    </table>]]></description>
          <Style>
            <IconStyle>
              <color>ff00aaff</color>
              <Icon>
                <href>https://maps.google.com/mapfiles/kml/shapes/placemark_circle.png</href>
              </Icon>
            </IconStyle>
          </Style>
          <Point>
            <altitudeMode>absolute</altitudeMode>
            <coordinates>-103.496,39.278,1703.83</coordinates>
          </Point>
        </Placemark>
        <Placemark>
          <name>Burst 67568ft</name>
          <description><![CDATA[<h1>Burst: 67568ft</h1>
    <table style="width: 100%;" cellpadding=0 cellspacing=0 border=0>
    <tr><td style="padding: 10px; border: solid 1px black;border-bottom: 0;"><strong>Time (UTC)</strong></td><td style="border: solid 1px black;border-left: 0; border-bottom: 0; padding: 10px;">08:01:17</td></tr>
    <tr><td style="padding: 10px; border: solid 1px black;border-bottom: 0;"><strong>Altitude</strong></td><td style="border: solid 1px black;border-left: 0; border-bottom: 0; padding: 10px;">67568ft (20594.7m)</td></tr>
    <tr><td style="padding: 10px; border: solid 1px black;"><strong>Coordinates</strong></td><td style="border: solid 1px black; border-left: 0; padding: 10px;">39.20700000, -103.38800000</td></tr>
    </table>]]></description>
          <Style>
            <IconStyle>
              <color>ff00ffff</color>
              <Icon>
                <href>https://maps.google.com/mapfiles/kml/shapes/placemark_circle.png</href>
              </Icon>
            </IconStyle>
          </Style>
          <Point>
            <altitudeMode>absolute</altitudeMode>
            <coordinates>-103.388,39.207,20594.73</coordinates>
          </Point>
        </Placemark>
        <Placemark>
          <name>57k, Turbulent-to-Laminar</name>
          <description><![CDATA[<h1>Airflow Transitioning from Turbulent-to-Laminar</h1>
        <table style="width: 100%;" cellpadding=0 cellspacing=0 border=0>
        <tr><td style="padding: 10px; border: solid 1px black;border-bottom: 0;"><strong>Time (UTC)</strong></td><td style="border: solid 1px black;border-left: 0; border-bottom: 0; padding: 10px;">07:49:16</td></tr>
        <tr><td style="padding: 10px; border: solid 1px black;border-bottom: 0;"><strong>Altitude</strong></td><td style="border: solid 1px black;border-left: 0; border-bottom: 0; padding: 10px;">56551ft (17236.7m)</td></tr>
        <tr><td style="padding: 10px; border: solid 1px black;"><strong>Coordinates</strong></td><td style="border: solid 1px black; border-left: 0; padding: 10px;">39.21433333, -103.36300000</td></tr>
        </table>]]></description>
          <Style>
            <IconStyle>
              <color>ff006400</color>
              <Icon>
                <href>https://maps.google.com/mapfiles/kml/shapes/placemark_circle.png</href>
              </Icon>
            </IconStyle>
          </Style>
          <Point>
            <altitudeMode>absolute</altitudeMode>
            <coordinates>-103.363,39.214333333333336,17236.74</coordinates>
          </Point>
        </Placemark>
      </Folder>
    </Document>
  </Document>
</kml>